NORAD_CAT_ID,OBJECT_NAME,OBJECT_TYPE,EPOCH,MEAN_MOTION,ECCENTRICITY,INCLINATION,RA_OF_ASC_NODE,ARG_OF_PERICENTER,MEAN_ANOMALY,BSTAR,MEAN_MOTION_DOT,MEAN_MOTION_DDOT,TLE_LINE0,TLE_LINE1,TLE_LINE2,SEMIMAJOR_AXIS,PERIOD,APOGEE,PERIGEE,DECAYED
51975.0,STARLINK-3674,PAYLOAD,2022-06-27 14:00:01,15.0882426,0.0001501,53.2179,334.4616,54.5536,278.2526,-0.0014734,-0.0002365,0.0,0 STARLINK-3674,1 51975U 22025V   22178.58334491 -.00023650  00000-0 -14734-2 0  9994,2 51975  53.2179 334.4616 0001501  54.5536 278.2526 15.08824260 18342,6917.929,95.439,540.832,538.755,0.0
51975.0,STARLINK-3674,PAYLOAD,2022-06-27 22:00:00,15.08824599,0.00015,53.2174,332.9608,46.8625,297.5309,0.0025164,0.00039971,0.0,0 STARLINK-3674,1 51975U 22025V   22178.91667824  .00039971  00000-0  25164-2 0  9990,2 51975  53.2174 332.9608 0001500  46.8625 297.5309 15.08824599 18396,6917.927,95.439,540.83,538.755,0.0
51975.0,STARLINK-3674,PAYLOAD,2022-06-28 06:00:00,15.08834412,0.0001354,53.2176,331.4627,56.4327,299.5572,-0.00059334,-9.717e-05,0.0,0 STARLINK-3674,1 51975U 22025V   22179.25001157 -.00009717  00000-0 -59334-3 0  9993,2 51975  53.2176 331.4627 0001354  56.4327 299.5572 15.08834412 18441,6917.897,95.438,540.6990000000002,538.826,0.0
51975.0,STARLINK-3674,PAYLOAD,2022-06-28 14:00:01,15.08831256,0.0001494,53.2178,329.9673,57.228,310.3423,-0.0017211,-0.00027568,0.0,0 STARLINK-3674,1 51975U 22025V   22179.58334491 -.00027568  00000-0 -17211-2 0  9990,2 51975  53.2178 329.9673 0001494  57.2280 310.3423 15.08831256  1305,6917.906999999997,95.438,540.806,538.739,0.0
51975.0,STARLINK-3674,PAYLOAD,2022-06-28 22:00:00,15.08810841,0.0001557,53.2173,328.4717,50.845,328.3022,0.0018046,0.00028526,0.0,0 STARLINK-3674,1 51975U 22025V   22179.91667824  .00028526  00000-0  18046-2 0  9996,2 51975  53.2173 328.4717 0001557  50.8450 328.3022 15.08810841  1302,6917.97,95.439,540.9119999999998,538.757,0.0
51975.0,STARLINK-3674,PAYLOAD,2022-06-29 14:00:01,15.08844873,0.0001486,53.2175,325.4786,57.9835,344.3069,-0.0017954,-0.00028752,0.0,0 STARLINK-3674,1 51975U 22025V   22180.58334491 -.00028752  00000-0 -17954-2 0  9992,2 51975  53.2175 325.4786 0001486  57.9835 344.3069 15.08844873 18649,6917.865,95.437,540.758,538.702,0.0
51975.0,STARLINK-3674,PAYLOAD,2022-06-29 22:00:00,15.08826842,0.0001538,53.217,323.9829,51.7802,2.0993,0.0013162,0.00020714,0.0,0 STARLINK-3674,1 51975U 22025V   22180.91667824  .00020714  00000-0  13162-2 0  9993,2 51975  53.2170 323.9829 0001538  51.7802   2.0993 15.08826842  1304,6917.920999999999,95.438,540.85,538.722,0.0
51975.0,STARLINK-3674,PAYLOAD,2022-06-30 06:00:00,15.08813955,0.000138,53.2171,322.4849,60.9369,4.5388,0.0028678,0.00045616,0.0,0 STARLINK-3674,1 51975U 22025V   22181.25001157  .00045616  00000-0  28678-2 0  9998,2 51975  53.2171 322.4849 0001380  60.9369   4.5388 15.08813955 18748,6917.96,95.439,540.78,538.87,0.0
51975.0,STARLINK-3674,PAYLOAD,2022-06-30 14:00:01,15.08854792,0.0001501999999999,53.2171,320.9899,58.3938,18.6619,-0.0017992999999999,-0.00028821,0.0,0 STARLINK-3674,1 51975U 22025V   22181.58334491 -.00028821  00000-0 -17993-2 0  9993,2 51975  53.2171 320.9899 0001502  58.3938  18.6619 15.08854792  1306,6917.835,95.437,540.739,538.661,0.0
51975.0,STARLINK-3674,PAYLOAD,2022-06-30 22:00:00,15.08840622,0.0001551999999999,53.2168,319.4943,51.9474,36.7073,0.00079176,0.00012336,0.0,0 STARLINK-3674,1 51975U 22025V   22181.91667824  .00012336  00000-0  79176-3 0  9993,2 51975  53.2168 319.4943 0001552  51.9474  36.7073 15.08840622 18854,6917.878000000002,95.438,540.817,538.67,0.0
51975.0,STARLINK-3674,PAYLOAD,2022-07-01 14:00:01,15.08865096,0.0001530999999999,53.2169,316.501,57.322,54.5422,-0.001615,-0.00025916,0.0,0 STARLINK-3674,1 51975U 22025V   22182.58334491 -.00025916  00000-0 -16150-2 0  9990,2 51975  53.2169 316.5010 0001531  57.3220  54.5422 15.08865096  1304,6917.804,95.436,540.7280000000002,538.61,0.0
51975.0,STARLINK-3674,PAYLOAD,2022-07-01 22:00:00,15.08865842,0.0001527,53.2167,315.0049,50.3086,73.1679,-0.0027781,-0.00044261,0.0,0 STARLINK-3674,1 51975U 22025V   22182.91667824 -.00044261  00000-0 -27781-2 0  9992,2 51975  53.2167 315.0049 0001527  50.3086  73.1679 15.08865842  1306,6917.801,95.436,540.7230000000002,538.61,0.0
51975.0,STARLINK-3674,PAYLOAD,2022-07-02 06:00:00,15.08810785,0.0001336,53.2169,313.5069,56.6859,78.4051,0.0026894,0.00042739,0.0,0 STARLINK-3674,1 51975U 22025V   22183.25001157  .00042739  00000-0  26894-2 0  9991,2 51975  53.2169 313.5069 0001336  56.6859  78.4051 15.08810785 19057,6917.97,95.439,540.759,538.91,0.0
51975.0,STARLINK-3674,PAYLOAD,2022-07-02 14:00:01,15.08845323,0.0001717,53.217,312.0121,58.8649,87.7923,-0.0013455,-0.00021641,0.0,0 STARLINK-3674,1 51975U 22025V   22183.58334491 -.00021641  00000-0 -13455-2 0  9997,2 51975  53.2170 312.0121 0001717  58.8649  87.7923 15.08845323  1302,6917.864000000001,95.437,540.9169999999998,538.5409999999998,0.0
51975.0,STARLINK-3674,PAYLOAD,2022-07-02 22:00:00,15.08857736,0.0001744,53.2168,310.5159,53.9331,104.3304,0.00041942,6.397e-05,0.0,0 STARLINK-3674,1 51975U 22025V   22183.91667824  .00006397  00000-0  41942-3 0  9995,2 51975  53.2168 310.5159 0001744  53.9331 104.3304 15.08857736  1307,6917.826,95.436,540.898,538.485,0.0
51975.0,STARLINK-3674,PAYLOAD,2022-07-03 14:00:01,15.08880544,0.0001652,53.2172,307.5232,55.4618,126.0404,-0.0057919,-0.000914,0.0,0 STARLINK-3674,1 51975U 22025V   22184.58334491 -.00091400  00000-0 -57919-2 0  9991,2 51975  53.2172 307.5232 0001652  55.4618 126.0404 15.08880544  1308,6917.755999999999,95.435,540.764,538.479,0.0
51975.0,STARLINK-3674,PAYLOAD,2022-07-03 22:00:00,15.08834991,0.0001617,53.217,306.0268,50.8026,142.3026,-0.0039898,-0.0006322,0.0,0 STARLINK-3674,1 51975U 22025V   22184.91667824 -.00063220  00000-0 -39898-2 0  9992,2 51975  53.2170 306.0268 0001617  50.8026 142.3026 15.08834991  1308,6917.896,95.438,540.879,538.6419999999998,0.0
51975.0,STARLINK-3674,PAYLOAD,2022-07-04 06:00:00,15.08771196,0.0001495,53.2173,304.529,58.5667,146.1086,0.0034585,0.0005507999999999,0.0,0 STARLINK-3674,1 51975U 22025V   22185.25001157  .00055080  00000-0  34585-2 0  9992,2 51975  53.2173 304.5290 0001495  58.5667 146.1086 15.08771196 19358,6918.090999999999,95.442,540.99,538.9209999999998,0.0
51975.0,STARLINK-3674,PAYLOAD,2022-07-04 14:00:01,15.08813141,0.000159,53.2173,303.0344,52.9038,163.3025,0.00081305,0.00012666,0.0,0 STARLINK-3674,1 51975U 22025V   22185.58334491  .00012666  00000-0  81305-3 0  9994,2 51975  53.2173 303.0344 0001590  52.9038 163.3025 15.08813141  1305,6917.962,95.439,540.927,538.7280000000002,0.0
51975.0,STARLINK-3674,PAYLOAD,2022-07-04 22:00:00,15.08848061,0.0001551999999999,53.217,301.5379,49.3889,178.3874,-0.0010151,-0.00016411,0.0,0 STARLINK-3674,1 51975U 22025V   22185.91667824 -.00016411  00000-0 -10151-2 0  9994,2 51975  53.2170 301.5379 0001552  49.3889 178.3874 15.08848061  1302,6917.856,95.437,540.794,538.6469999999998,0.0
51975.0,STARLINK-3674,PAYLOAD,2022-07-05 08:00:01,15.08839578,0.0001426999999999,53.2175,299.6663,58.5709,273.6937,0.0011091,0.00017407,0.0,0 STARLINK-3674,1 51975U 22025V   22186.33334491  .00017407  00000-0  11091-2 0  9990,2 51975  53.2175 299.6663 0001427  58.5709 273.6937 15.08839578 19518,6917.882,95.438,540.734,538.759,0.0
51975.0,STARLINK-3674,PAYLOAD,2022-07-05 14:00:01,15.08855826,0.0001575,53.2171,298.5455,52.1309,198.8401,-0.0012868,-0.00020718,0.0,0 STARLINK-3674,1 51975U 22025V   22186.58334491 -.00020718  00000-0 -12868-2 0  9991,2 51975  53.2171 298.5455 0001575  52.1309 198.8401 15.08855826  1307,6917.831999999999,95.437,540.7869999999998,538.607,0.0
51975.0,STARLINK-3674,PAYLOAD,2022-07-05 22:00:00,15.08855284,0.0001575,53.2168,297.0487,51.8283,210.7429,-0.0030295,-0.000482,0.0,0 STARLINK-3674,1 51975U 22025V   22186.91667824 -.00048200  00000-0 -30295-2 0  9997,2 51975  53.2168 297.0487 0001575  51.8283 210.7429 15.08855284 19603,6917.834,95.437,540.788,538.609,0.0
51975.0,STARLINK-3674,PAYLOAD,2022-07-06 14:00:01,15.08834101,0.0001615,53.2168,294.0565,54.4219,231.3257,-0.00041965,-6.959e-05,0.0,0 STARLINK-3674,1 51975U 22025V   22187.58334491 -.00006959  00000-0 -41965-3 0  9994,2 51975  53.2168 294.0565 0001615  54.4219 231.3257 15.08834101  1301,6917.898,95.438,540.881,538.646,0.0
51975.0,STARLINK-3674,PAYLOAD,2022-07-06 16:00:00,15.08821877,0.0001636999999999,53.2169,293.6827,53.5295,325.1179,0.001361,0.00021428,0.0,0 STARLINK-3674,1 51975U 22025V   22187.66667824  .00021428  00000-0  13610-2 0  9993,2 51975  53.2169 293.6827 0001637  53.5295 325.1179 15.08821877 19711,6917.936,95.439,540.933,538.668,0.0
51975.0,STARLINK-3674,PAYLOAD,2022-07-06 22:00:00,15.08853783,0.0001555,53.2164,292.5595,53.495,243.8331,-0.0020879,-0.00033376,0.0,0 STARLINK-3674,1 51975U 22025V   22187.91667824 -.00033376  00000-0 -20879-2 0  9993,2 51975  53.2164 292.5595 0001555  53.4950 243.8331 15.08853783  1305,6917.8380000000025,95.437,540.779,538.628,0.0
51975.0,STARLINK-3674,PAYLOAD,2022-07-07 12:35:06,15.08845822,0.0001571999999999,53.2168,289.8308,56.1539,303.9602,0.00018596,2.673e-05,0.0,0 STARLINK-3674,1 51975U 22025V   22188.52438651  .00002673  00000-0  18596-3 0  9993,2 51975  53.2168 289.8308 0001572  56.1539 303.9602 15.08845822 18731,6917.863,95.437,540.815,538.64,0.0
51975.0,STARLINK-3674,PAYLOAD,2022-07-07 22:00:00,15.08879437,0.0001594,53.2161,288.0705,54.4821,277.6571,-0.0051267,-0.0008105,0.0,0 STARLINK-3674,1 51975U 22025V   22188.91667824 -.00081050  00000-0 -51267-2 0  9991,2 51975  53.2161 288.0705 0001594  54.4821 277.6571 15.08879437 19906,6917.76,95.435,540.7280000000002,538.5219999999998,0.0
51975.0,STARLINK-3674,PAYLOAD,2022-07-08 02:53:34,15.08860232,0.0001597,53.2167,287.1544,57.3814,302.7332,0.00050126,7.703e-05,0.0,0 STARLINK-3674,1 51975U 22025V   22189.12053873  .00007703  00000-0  50126-3 0  9993,2 51975  53.2167 287.1544 0001597  57.3814 302.7332 15.08860232 19931,6917.819,95.436,540.788,538.5790000000002,0.0
